{
  "type": "FeatureCollection",
  "features": [
    {
      "type": "Feature",
      "properties": {
        "norad_id": 39766,
        "name": "ALOS-2",
        "group": "resource",
        "lat": 55.072768990706436,
        "lon": 71.03038535994015,
        "alt_km": 624.9756822554209,
        "timestamp": "2025-12-13T16:48:32.370441+00:00",
        "meta_object_name": "ALOS-2",
        "meta_object_id": "2014-029A",
        "meta_epoch": "2025-12-12T12:57:47.930112",
        "meta_mean_motion": 14.79474197,
        "meta_eccentricity": 0.00014,
        "meta_inclination": 97.9217,
        "meta_ra_of_asc_node": 81.3886,
        "meta_arg_of_pericenter": 99.6977,
        "meta_mean_anomaly": 260.4393,
        "meta_ephemeris_type": 0,
        "meta_classification_type": "U",
        "meta_norad_cat_id": 39766,
        "meta_element_set_no": 999,
        "meta_rev_at_epoch": 62398,
        "meta_bstar": 0.00062702076,
        "meta_mean_motion_dot": 4.634e-05,
        "meta_mean_motion_ddot": 0,
        "tle_line1": "1 39766U 14029A   25346.54013808  .00004634  00000+0  62702-3 0  9992",
        "tle_line2": "2 39766  97.9217  81.3886 0001400  99.6977 260.4393 14.79474197623982"
      },
      "geometry": {
        "type": "Point",
        "coordinates": [
          71.03038535994015,
          55.072768990706436
        ]
      }
    },
    {
      "type": "Feature",
      "properties": {
        "norad_id": 40010,
        "name": "KAZEOSAT 2",
        "group": "resource",
        "lat": -14.231246884569563,
        "lon": -166.10684844397338,
        "alt_km": 621.9656773962133,
        "timestamp": "2025-12-13T16:48:32.370451+00:00",
        "meta_object_name": "KAZEOSAT 2",
        "meta_object_id": "2014-033A",
        "meta_epoch": "2025-12-13T00:42:13.755168",
        "meta_mean_motion": 14.85169937,
        "meta_eccentricity": 0.00076442,
        "meta_inclination": 97.5508,
        "meta_ra_of_asc_node": 191.3291,
        "meta_arg_of_pericenter": 205.622,
        "meta_mean_anomaly": 154.4618,
        "meta_ephemeris_type": 0,
        "meta_classification_type": "U",
        "meta_norad_cat_id": 40010,
        "meta_element_set_no": 999,
        "meta_rev_at_epoch": 62132,
        "meta_bstar": 0.0001608303,
        "meta_mean_motion_dot": 1.328e-05,
        "meta_mean_motion_ddot": 0,
        "tle_line1": "1 40010U 14033A   25347.02932587  .00001328  00000+0  16083-3 0  9997",
        "tle_line2": "2 40010  97.5508 191.3291 0007644 205.6220 154.4618 14.85169937621321"
      },
      "geometry": {
        "type": "Point",
        "coordinates": [
          -166.10684844397338,
          -14.231246884569563
        ]
      }
    },
    {
      "type": "Feature",
      "properties": {
        "norad_id": 40011,
        "name": "HODOYOSHI-4",
        "group": "resource",
        "lat": 78.4226751750201,
        "lon": 136.2435979650673,
        "alt_km": 605.5965846079816,
        "timestamp": "2025-12-13T16:48:32.370461+00:00",
        "meta_object_name": "HODOYOSHI-4",
        "meta_object_id": "2014-033B",
        "meta_epoch": "2025-12-13T00:17:57.338880",
        "meta_mean_motion": 14.87483366,
        "meta_eccentricity": 0.00232394,
        "meta_inclination": 97.5416,
        "meta_ra_of_asc_node": 175.8828,
        "meta_arg_of_pericenter": 199.6037,
        "meta_mean_anomaly": 160.4289,
        "meta_ephemeris_type": 0,
        "meta_classification_type": "U",
        "meta_norad_cat_id": 40011,
        "meta_element_set_no": 999,
        "meta_rev_at_epoch": 62112,
        "meta_bstar": 0.00030274335,
        "meta_mean_motion_dot": 2.705e-05,
        "meta_mean_motion_ddot": 0,
        "tle_line1": "1 40011U 14033B   25347.01246920  .00002705  00000+0  30274-3 0  9994",
        "tle_line2": "2 40011  97.5416 175.8828 0023239 199.6037 160.4289 14.87483366621125"
      },
      "geometry": {
        "type": "Point",
        "coordinates": [
          136.2435979650673,
          78.4226751750201
        ]
      }
    },
    {
      "type": "Feature",
      "properties": {
        "norad_id": 40013,
        "name": "DEIMOS-2",
        "group": "resource",
        "lat": -75.56174907812293,
        "lon": 12.203422494310022,
        "alt_km": 596.488319072645,
        "timestamp": "2025-12-13T16:48:32.370471+00:00",
        "meta_object_name": "DEIMOS-2",
        "meta_object_id": "2014-033D",
        "meta_epoch": "2025-12-12T23:34:23.040768",
        "meta_mean_motion": 14.92974987,
        "meta_eccentricity": 7.912e-05,
        "meta_inclination": 97.606,
        "meta_ra_of_asc_node": 222.7744,
        "meta_arg_of_pericenter": 104.5248,
        "meta_mean_anomaly": 255.6059,
        "meta_ephemeris_type": 0,
        "meta_classification_type": "U",
        "meta_norad_cat_id": 40013,
        "meta_element_set_no": 999,
        "meta_rev_at_epoch": 60993,
        "meta_bstar": 0.00033932058,
        "meta_mean_motion_dot": 3.471e-05,
        "meta_mean_motion_ddot": 0,
        "tle_line1": "1 40013U 14033D   25346.98221112  .00003471  00000+0  33932-3 0  9992",
        "tle_line2": "2 40013  97.6060 222.7744 0000791 104.5248 255.6059 14.92974987609936"
      },
      "geometry": {
        "type": "Point",
        "coordinates": [
          12.203422494310022,
          -75.56174907812293
        ]
      }
    },
    {
      "type": "Feature",
      "properties": {
        "norad_id": 40015,
        "name": "HODOYOSHI-3",
        "group": "resource",
        "lat": -2.158319955506579,
        "lon": 153.7823695840669,
        "alt_km": 626.2101060157102,
        "timestamp": "2025-12-13T16:48:32.370485+00:00",
        "meta_object_name": "HODOYOSHI-3",
        "meta_object_id": "2014-033F",
        "meta_epoch": "2025-12-12T23:01:39.934272",
        "meta_mean_motion": 14.84808116,
        "meta_eccentricity": 0.0031914,
        "meta_inclination": 97.6198,
        "meta_ra_of_asc_node": 152.7849,
        "meta_arg_of_pericenter": 247.2139,
        "meta_mean_anomaly": 112.5704,
        "meta_ephemeris_type": 0,
        "meta_classification_type": "U",
        "meta_norad_cat_id": 40015,
        "meta_element_set_no": 999,
        "meta_rev_at_epoch": 61998,
        "meta_bstar": 0.00031566809,
        "meta_mean_motion_dot": 2.651e-05,
        "meta_mean_motion_ddot": 0,
        "tle_line1": "1 40015U 14033F   25346.95948998  .00002651  00000+0  31567-3 0  9990",
        "tle_line2": "2 40015  97.6198 152.7849 0031914 247.2139 112.5704 14.84808116619988"
      },
      "geometry": {
        "type": "Point",
        "coordinates": [
          153.7823695840669,
          -2.158319955506579
        ]
      }
    },
    {
      "type": "Feature",
      "properties": {
        "norad_id": 40053,
        "name": "SPOT 7",
        "group": "resource",
        "lat": -2.8599670769562597,
        "lon": 50.16035291370101,
        "alt_km": 694.1190509770804,
        "timestamp": "2025-12-13T16:48:32.370495+00:00",
        "meta_object_name": "SPOT 7",
        "meta_object_id": "2014-034A",
        "meta_epoch": "2025-12-13T00:22:56.344224",
        "meta_mean_motion": 14.60735052,
        "meta_eccentricity": 0.00015888,
        "meta_inclination": 98.0903,
        "meta_ra_of_asc_node": 49.0846,
        "meta_arg_of_pericenter": 87.7231,
        "meta_mean_anomaly": 272.4152,
        "meta_ephemeris_type": 0,
        "meta_classification_type": "U",
        "meta_norad_cat_id": 40053,
        "meta_element_set_no": 999,
        "meta_rev_at_epoch": 60995,
        "meta_bstar": 0.00023415326,
        "meta_mean_motion_dot": 1.096e-05,
        "meta_mean_motion_ddot": 0,
        "tle_line1": "1 40053U 14034A   25347.01592991  .00001096  00000+0  23415-3 0  9994",
        "tle_line2": "2 40053  98.0903  49.0846 0001588  87.7231 272.4152 14.60735052609959"
      },
      "geometry": {
        "type": "Point",
        "coordinates": [
          50.16035291370101,
          -2.8599670769562597
        ]
      }
    },
    {
      "type": "Feature",
      "properties": {
        "norad_id": 40072,
        "name": "SKYSAT-B",
        "group": "resource",
        "lat": 23.669214774661427,
        "lon": -72.23907080239003,
        "alt_km": 608.1124472962529,
        "timestamp": "2025-12-13T16:48:32.370505+00:00",
        "meta_object_name": "SKYSAT-B",
        "meta_object_id": "2014-037D",
        "meta_epoch": "2025-12-12T19:42:42.141312",
        "meta_mean_motion": 14.87328681,
        "meta_eccentricity": 0.00061586,
        "meta_inclination": 98.3606,
        "meta_ra_of_asc_node": 290.5316,
        "meta_arg_of_pericenter": 149.7913,
        "meta_mean_anomaly": 210.3657,
        "meta_ephemeris_type": 0,
        "meta_classification_type": "U",
        "meta_norad_cat_id": 40072,
        "meta_element_set_no": 999,
        "meta_rev_at_epoch": 61825,
        "meta_bstar": 0.00031262497,
        "meta_mean_motion_dot": 2.763e-05,
        "meta_mean_motion_ddot": 0,
        "tle_line1": "1 40072U 14037D   25346.82132108  .00002763  00000+0  31262-3 0  9997",
        "tle_line2": "2 40072  98.3606 290.5316 0006158 149.7913 210.3657 14.87328681618251"
      },
      "geometry": {
        "type": "Point",
        "coordinates": [
          -72.23907080239003,
          23.669214774661427
        ]
      }
    }
  ]
}